[{"OBJECT_NAME":"STARLINK-3232","OBJECT_ID":"2022-001G","EPOCH":"2026-03-09T11:29:59.321184","MEAN_MOTION":15.08845152,"ECCENTRICITY":0.00010688,"INCLINATION":53.2179,"RA_OF_ASC_NODE":160.0731,"ARG_OF_PERICENTER":80.3687,"MEAN_ANOMALY":279.7426,"EPHEMERIS_TYPE":0,"CLASSIFICATION_TYPE":"U","NORAD_CAT_ID":50809,"ELEMENT_SET_NO":999,"REV_AT_EPOCH":23051,"BSTAR":0.00045475065,"MEAN_MOTION_DOT":6.958e-5,"MEAN_MOTION_DDOT":0},{"OBJECT_NAME":"CZ-4C R\/B","OBJECT_ID":"2021-026B","EPOCH":"2026-03-09T16:37:41.696544","MEAN_MOTION":15.16445633,"ECCENTRICITY":0.00393855,"INCLINATION":97.7468,"RA_OF_ASC_NODE":117.371,"ARG_OF_PERICENTER":22.5612,"MEAN_ANOMALY":337.7341,"EPHEMERIS_TYPE":0,"CLASSIFICATION_TYPE":"U","NORAD_CAT_ID":48080,"ELEMENT_SET_NO":999,"REV_AT_EPOCH":27175,"BSTAR":0.00026802982,"MEAN_MOTION_DOT":5.244e-5,"MEAN_MOTION_DDOT":0}]
